STARLINK-35452          
1 66104U 25236U   26068.36904450  .00009763  00000+0  34144-3 0  9991
2 66104  53.1590 105.4911 0001335  87.3218 272.7936 15.30188556 22893
2025-313BD              
1 67299U 25313BD  26068.62968741  .00081010  00000+0  27634-2 0  9995
2 67299  97.3970 145.2850 0007287 333.4514  26.6352 15.30002360 10838
